HAWK-13A                
1 67392U 26004AF  26194.47428887  .00002485  00000+0  12082-3 0  9993
2 67392  97.4444 192.9719 0003995 226.8445 133.2456 15.19349955 27752
HAWK-13C                
1 67393U 26004AG  26194.47413804  .00002491  00000+0  12111-3 0  9997
2 67393  97.4588 193.3926 0003814 230.9886 129.1009 15.19350016 27750
HAWK-13B                
1 67396U 26004AK  26194.47404910  .00002490  00000+0  12103-3 0  9998
2 67396  97.4528 193.2171 0005108 231.9046 128.1728 15.19349225 27752
HAWK-14B                
1 68436U 26067W   26194.44512228  .00002358  00000+0  11789-3 0  9994
2 68436  97.4560 152.5214 0001769   5.8305 354.2949 15.18422373 15923
HAWK-14C                
1 68441U 26067AB  26194.44522000  .00002377  00000+0  11878-3 0  9999
2 68441  97.4496 152.4030 0002765  23.6259 336.5102 15.18422346 15929
HAWK-14A                
1 68448U 26067AJ  26193.85224784  .00002724  00000+0  13565-3 0  9999
2 68448  97.4625 152.0618 0003571  21.0001 339.1379 15.18422424 15833
