{"fetched_at":"2026-07-13T18:16:56.496Z","source":"https://celestrak.org/NORAD/elements/gp.php?NAME=HAWK&FORMAT=JSON","constellation":"hawkeye-360","records":[{"OBJECT_NAME":"HAWK-13A","OBJECT_ID":"2026-004AF","EPOCH":"2026-07-13T11:22:58.558368","CLASSIFICATION_TYPE":"U","MEAN_MOTION":15.19349955,"ECCENTRICITY":0.0003995,"INCLINATION":97.4444,"RA_OF_ASC_NODE":192.9719,"ARG_OF_PERICENTER":226.8445,"MEAN_ANOMALY":133.2456,"EPHEMERIS_TYPE":0,"NORAD_CAT_ID":67392,"ELEMENT_SET_NO":999,"REV_AT_EPOCH":2775,"BSTAR":0.00012082,"MEAN_MOTION_DOT":0.00002485,"MEAN_MOTION_DDOT":0},{"OBJECT_NAME":"HAWK-13C","OBJECT_ID":"2026-004AG","EPOCH":"2026-07-13T11:22:45.526656","CLASSIFICATION_TYPE":"U","MEAN_MOTION":15.19350016,"ECCENTRICITY":0.0003814,"INCLINATION":97.4588,"RA_OF_ASC_NODE":193.3926,"ARG_OF_PERICENTER":230.9886,"MEAN_ANOMALY":129.1009,"EPHEMERIS_TYPE":0,"NORAD_CAT_ID":67393,"ELEMENT_SET_NO":999,"REV_AT_EPOCH":2775,"BSTAR":0.00012111,"MEAN_MOTION_DOT":0.00002491,"MEAN_MOTION_DDOT":0},{"OBJECT_NAME":"HAWK-13B","OBJECT_ID":"2026-004AK","EPOCH":"2026-07-13T11:22:37.842240","CLASSIFICATION_TYPE":"U","MEAN_MOTION":15.19349225,"ECCENTRICITY":0.0005108,"INCLINATION":97.4528,"RA_OF_ASC_NODE":193.2171,"ARG_OF_PERICENTER":231.9046,"MEAN_ANOMALY":128.1728,"EPHEMERIS_TYPE":0,"NORAD_CAT_ID":67396,"ELEMENT_SET_NO":999,"REV_AT_EPOCH":2775,"BSTAR":0.00012103,"MEAN_MOTION_DOT":0.0000249,"MEAN_MOTION_DDOT":0},{"OBJECT_NAME":"HAWK-14B","OBJECT_ID":"2026-067W","EPOCH":"2026-07-13T10:40:58.564992","CLASSIFICATION_TYPE":"U","MEAN_MOTION":15.18422373,"ECCENTRICITY":0.0001769,"INCLINATION":97.456,"RA_OF_ASC_NODE":152.5214,"ARG_OF_PERICENTER":5.8305,"MEAN_ANOMALY":354.2949,"EPHEMERIS_TYPE":0,"NORAD_CAT_ID":68436,"ELEMENT_SET_NO":999,"REV_AT_EPOCH":1592,"BSTAR":0.00011789,"MEAN_MOTION_DOT":0.00002358,"MEAN_MOTION_DDOT":0},{"OBJECT_NAME":"HAWK-14C","OBJECT_ID":"2026-067AB","EPOCH":"2026-07-13T10:41:07.008000","CLASSIFICATION_TYPE":"U","MEAN_MOTION":15.18422346,"ECCENTRICITY":0.0002765,"INCLINATION":97.4496,"RA_OF_ASC_NODE":152.403,"ARG_OF_PERICENTER":23.6259,"MEAN_ANOMALY":336.5102,"EPHEMERIS_TYPE":0,"NORAD_CAT_ID":68441,"ELEMENT_SET_NO":999,"REV_AT_EPOCH":1592,"BSTAR":0.00011878,"MEAN_MOTION_DOT":0.00002377,"MEAN_MOTION_DDOT":0},{"OBJECT_NAME":"HAWK-14A","OBJECT_ID":"2026-067AJ","EPOCH":"2026-07-12T20:27:14.213376","CLASSIFICATION_TYPE":"U","MEAN_MOTION":15.18422424,"ECCENTRICITY":0.00035712,"INCLINATION":97.4625,"RA_OF_ASC_NODE":152.0618,"ARG_OF_PERICENTER":21.0001,"MEAN_ANOMALY":339.1379,"EPHEMERIS_TYPE":0,"NORAD_CAT_ID":68448,"ELEMENT_SET_NO":999,"REV_AT_EPOCH":1583,"BSTAR":0.00013565011,"MEAN_MOTION_DOT":0.00002724,"MEAN_MOTION_DDOT":0}]}
